[
    {
        "Altitude(m)": 605470.7985641937,
        "Argument of Periapsis(deg)": 0.0,
        "Eccentricity": 0.0,
        "Inclination(deg)": 60.0,
        "Latitude(deg)": 27.988233960227873,
        "Longitude(deg)": 107.26295140822288,
        "Mean Anomaly(deg)": 147.2727,
        "RAAN(deg)": 45.0,
        "Satellite Name": "Test1 207",
        "Satellite Number": 207,
        "Semi-Major Axis(m)": 6980739.136638005,
        "Time(s)": 0
    },
    {
        "Altitude(m)": 605395.8363265026,
        "Argument of Periapsis(deg)": 0.00010418945913296404,
        "Eccentricity": 0.0,
        "Inclination(deg)": 60.0,
        "Latitude(deg)": 27.473924607689035,
        "Longitude(deg)": 107.61613918071757,
        "Mean Anomaly(deg)": 147.89280614546186,
        "RAAN(deg)": 44.99957995086026,
        "Satellite Name": "Test1 207",
        "Satellite Number": 207,
        "Semi-Major Axis(m)": 6980739.136638005,
        "Time(s)": 10
    },
    {
        "Altitude(m)": 605322.6767449087,
        "Argument of Periapsis(deg)": 0.0002083789182659281,
        "Eccentricity": 0.0,
        "Inclination(deg)": 60.0,
        "Latitude(deg)": 26.958469459126466,
        "Longitude(deg)": 107.96567874105392,
        "Mean Anomaly(deg)": 148.51291229092362,
        "RAAN(deg)": 44.99915990172052,
        "Satellite Name": "Test1 207",
        "Satellite Number": 207,
        "Semi-Major Axis(m)": 6980739.136638005,
        "Time(s)": 20
    },
    {
        "Altitude(m)": 605251.3754939829,
        "Argument of Periapsis(deg)": 0.00031256837739889213,
        "Eccentricity": 0.0,
        "Inclination(deg)": 60.0,
        "Latitude(deg)": 26.441903016945606,
        "Longitude(deg)": 108.3116747392358,
        "Mean Anomaly(deg)": 149.13301843638544,
        "RAAN(deg)": 44.99873985258077,
        "Satellite Name": "Test1 207",
        "Satellite Number": 207,
        "Semi-Major Axis(m)": 6980739.136638005,
        "Time(s)": 30
    },
    {
        "Altitude(m)": 605181.9875203681,
        "Argument of Periapsis(deg)": 0.0004167578365318562,
        "Eccentricity": 0.0,
        "Inclination(deg)": 60.0,
        "Latitude(deg)": 25.924258929255043,
        "Longitude(deg)": 108.65423009277787,
        "Mean Anomaly(deg)": 149.75312458184732,
        "RAAN(deg)": 44.99831980344103,
        "Satellite Name": "Test1 207",
        "Satellite Number": 207,
        "Semi-Major Axis(m)": 6980739.136638005,
        "Time(s)": 40
    },
    {
        "Altitude(m)": 605114.5670138174,
        "Argument of Periapsis(deg)": 0.0005209472956648203,
        "Eccentricity": 0.0,
        "Inclination(deg)": 60.0,
        "Latitude(deg)": 25.405570022421376,
        "Longitude(deg)": 108.99344504282759,
        "Mean Anomaly(deg)": 150.37323072730916,
        "RAAN(deg)": 44.99789975430129,
        "Satellite Name": "Test1 207",
        "Satellite Number": 207,
        "Semi-Major Axis(m)": 6980739.136638005,
        "Time(s)": 50
    },
    {
        "Altitude(m)": 605049.1673785876,
        "Argument of Periapsis(deg)": 0.0006251367547977843,
        "Eccentricity": 0.0,
        "Inclination(deg)": 60.0,
        "Latitude(deg)": 24.88586833250625,
        "Longitude(deg)": 109.3294177223638,
        "Mean Anomaly(deg)": 150.99333687277098,
        "RAAN(deg)": 44.997479705161545,
        "Satellite Name": "Test1 207",
        "Satellite Number": 207,
        "Semi-Major Axis(m)": 6980739.136638005,
        "Time(s)": 60
    },
    {
        "Altitude(m)": 604985.8412051447,
        "Argument of Periapsis(deg)": 0.0007293262139307483,
        "Eccentricity": 0.0,
        "Inclination(deg)": 60.0,
        "Latitude(deg)": 24.365185135627296,
        "Longitude(deg)": 109.66224472353754,
        "Mean Anomaly(deg)": 151.6134430182328,
        "RAAN(deg)": 44.9970596560218,
        "Satellite Name": "Test1 207",
        "Satellite Number": 207,
        "Semi-Major Axis(m)": 6980739.136638005,
        "Time(s)": 70
    },
    {
        "Altitude(m)": 604924.64024226,
        "Argument of Periapsis(deg)": 0.0008335156730637124,
        "Eccentricity": 0.0,
        "Inclination(deg)": 60.0,
        "Latitude(deg)": 23.84355097727953,
        "Longitude(deg)": 109.99202015123363,
        "Mean Anomaly(deg)": 152.23354916369462,
        "RAAN(deg)": 44.996639606882056,
        "Satellite Name": "Test1 207",
        "Satellite Number": 207,
        "Semi-Major Axis(m)": 6980739.136638005,
        "Time(s)": 80
    },
    {
        "Altitude(m)": 604865.6153694543,
        "Argument of Periapsis(deg)": 0.0009377051321966765,
        "Eccentricity": 0.0,
        "Inclination(deg)": 60.0,
        "Latitude(deg)": 23.320995700655494,
        "Longitude(deg)": 110.31883618856119,
        "Mean Anomaly(deg)": 152.85365530915647,
        "RAAN(deg)": 44.996219557742315,
        "Satellite Name": "Test1 207",
        "Satellite Number": 207,
        "Semi-Major Axis(m)": 6980739.136638005,
        "Time(s)": 90
    },
    {
        "Altitude(m)": 604808.8165698275,
        "Argument of Periapsis(deg)": 0.0010418945913296407,
        "Eccentricity": 0.0,
        "Inclination(deg)": 60.0,
        "Latitude(deg)": 22.797548473999637,
        "Longitude(deg)": 110.6427836613689,
        "Mean Anomaly(deg)": 153.47376145461828,
        "RAAN(deg)": 44.99579950860257,
        "Satellite Name": "Test1 207",
        "Satellite Number": 207,
        "Semi-Major Axis(m)": 6980739.136638005,
        "Time(s)": 100
    },
    {
        "Altitude(m)": 604754.2929033017,
        "Argument of Periapsis(deg)": 0.0011460840504626045,
        "Eccentricity": 0.0,
        "Inclination(deg)": 60.0,
        "Latitude(deg)": 22.273237817034765,
        "Longitude(deg)": 110.96395108888476,
        "Mean Anomaly(deg)": 154.09386760008013,
        "RAAN(deg)": 44.99537945946283,
        "Satellite Name": "Test1 207",
        "Satellite Number": 207,
        "Semi-Major Axis(m)": 6980739.136638005,
        "Time(s)": 110
    },
    {
        "Altitude(m)": 604702.0924802782,
        "Argument of Periapsis(deg)": 0.0012502735095955685,
        "Eccentricity": 0.0,
        "Inclination(deg)": 60.0,
        "Latitude(deg)": 21.748091626493856,
        "Longitude(deg)": 111.282425246213,
        "Mean Anomaly(deg)": 154.71397374554195,
        "RAAN(deg)": 44.99495941032309,
        "Satellite Name": "Test1 207",
        "Satellite Number": 207,
        "Semi-Major Axis(m)": 6980739.136638005,
        "Time(s)": 120
    },
    {
        "Altitude(m)": 604652.2624356989,
        "Argument of Periapsis(deg)": 0.0013544629687285324,
        "Eccentricity": 0.0,
        "Inclination(deg)": 60.0,
        "Latitude(deg)": 21.222137200791604,
        "Longitude(deg)": 111.59829172580163,
        "Mean Anomaly(deg)": 155.33407989100377,
        "RAAN(deg)": 44.99453936118335,
        "Satellite Name": "Test1 207",
        "Satellite Number": 207,
        "Semi-Major Axis(m)": 6980739.136638005,
        "Time(s)": 130
    },
    {
        "Altitude(m)": 604604.8489035873,
        "Argument of Periapsis(deg)": 0.0014586524278614966,
        "Eccentricity": 0.0,
        "Inclination(deg)": 60.0,
        "Latitude(deg)": 20.695401263870973,
        "Longitude(deg)": 111.91163398499926,
        "Mean Anomaly(deg)": 155.95418603646564,
        "RAAN(deg)": 44.99411931204361,
        "Satellite Name": "Test1 207",
        "Satellite Number": 207,
        "Semi-Major Axis(m)": 6980739.136638005,
        "Time(s)": 140
    },
    {
        "Altitude(m)": 604559.8969920176,
        "Argument of Periapsis(deg)": 0.0015628418869944607,
        "Eccentricity": 0.0,
        "Inclination(deg)": 60.0,
        "Latitude(deg)": 20.16790998825438,
        "Longitude(deg)": 112.22253390544915,
        "Mean Anomaly(deg)": 156.57429218192746,
        "RAAN(deg)": 44.99369926290386,
        "Satellite Name": "Test1 207",
        "Satellite Number": 207,
        "Semi-Major Axis(m)": 6980739.136638005,
        "Time(s)": 150
    },
    {
        "Altitude(m)": 604517.4507585738,
        "Argument of Periapsis(deg)": 0.0016670313461274247,
        "Eccentricity": 0.0,
        "Inclination(deg)": 60.0,
        "Latitude(deg)": 19.639689017332778,
        "Longitude(deg)": 112.53107235144792,
        "Mean Anomaly(deg)": 157.19439832738928,
        "RAAN(deg)": 44.99327921376411,
        "Satellite Name": "Test1 207",
        "Satellite Number": 207,
        "Semi-Major Axis(m)": 6980739.136638005,
        "Time(s)": 160
    },
    {
        "Altitude(m)": 604477.55318627,
        "Argument of Periapsis(deg)": 0.0017712208052603888,
        "Eccentricity": 0.0,
        "Inclination(deg)": 60.0,
        "Latitude(deg)": 19.11076348692407,
        "Longitude(deg)": 112.8373282144007,
        "Mean Anomaly(deg)": 157.8145044728511,
        "RAAN(deg)": 44.99285916462437,
        "Satellite Name": "Test1 207",
        "Satellite Number": 207,
        "Semi-Major Axis(m)": 6980739.136638005,
        "Time(s)": 170
    },
    {
        "Altitude(m)": 604440.2461599921,
        "Argument of Periapsis(deg)": 0.001875410264393353,
        "Eccentricity": 0.0,
        "Inclination(deg)": 60.0,
        "Latitude(deg)": 18.581158046128735,
        "Longitude(deg)": 113.14137896913097,
        "Mean Anomaly(deg)": 158.43461061831295,
        "RAAN(deg)": 44.99243911548463,
        "Satellite Name": "Test1 207",
        "Satellite Number": 207,
        "Semi-Major Axis(m)": 6980739.136638005,
        "Time(s)": 180
    },
    {
        "Altitude(m)": 604405.5704434324,
        "Argument of Periapsis(deg)": 0.0019795997235263173,
        "Eccentricity": 0.0,
        "Inclination(deg)": 60.0,
        "Latitude(deg)": 18.050896877512915,
        "Longitude(deg)": 113.44330122918358,
        "Mean Anomaly(deg)": 159.05471676377476,
        "RAAN(deg)": 44.99201906634489,
        "Satellite Name": "Test1 207",
        "Satellite Number": 207,
        "Semi-Major Axis(m)": 6980739.136638005,
        "Time(s)": 190
    }
]